stk.v.12.0

# WrittenBy    STK_v12.9.1

BEGIN Ephemeris

    NumberOfEphemerisPoints		 8713

    ScenarioEpoch		 1 Jan 2031 17:00:00.000000

# Epoch in JDate format: 2462868.20833333333333
# Epoch in YYDDD format:   31001.70833333333333


    InterpolationMethod		 Lagrange

    InterpolationSamplesM1		 7

    CentralBody		 Sun

    CoordinateSystem		 ICRF

# Time of first point: 1 Jan 2031 00:00:00.000000000 UTCG = 2462867.50000000000000 JDate = 31001.00000000000000 YYDDD

    EphemerisTimePosVel		

 1.5058800000000000e+07 -2.2783689034878858e+06 -1.3245439443162870e+08 -6.8446575287634507e+06  3.3039651975571793e+01 -8.7487375360837643e+00  3.1725427510590878e+00
 1.5062400000026822e+07 -2.1594253300337121e+06 -1.3248584109723569e+08 -6.8332338533987030e+06  3.3040106950527282e+01 -8.7216341192090159e+00  3.1739430216866840e+00
 1.5065999999973178e+07 -2.0404801629817290e+06 -1.3251719021078680e+08 -6.8218051429018145e+06  3.3040537311504693e+01 -8.6945419523399217e+00  3.1753400469664821e+00
 1.5069600000000000e+07 -1.9215334908880570e+06 -1.3254844181281680e+08 -6.8103714089518189e+06  3.3040943090057347e+01 -8.6674610552490918e+00  3.1767338293724769e+00
 1.5073200000026822e+07 -1.8025854021952320e+06 -1.3257959594393170e+08 -6.7989326632188857e+06  3.3041324317734627e+01 -8.6403914476376826e+00  3.1781243713818710e+00
 1.5076799999973178e+07 -1.6836359852244291e+06 -1.3261065264481050e+08 -6.7874889173634574e+06  3.3041681026081797e+01 -8.6133331491337124e+00  3.1795116754751409e+00
 1.5080400000000000e+07 -1.5646853281910580e+06 -1.3264161195620030e+08 -6.7760401830378249e+06  3.3042013246639911e+01 -8.5862861792957368e+00  3.1808957441358361e+00
 1.5084000000026822e+07 -1.4457335191969899e+06 -1.3267247391891900e+08 -6.7645864718853012e+06  3.3042321010945642e+01 -8.5592505576111790e+00  3.1822765798506509e+00
 1.5087599999973178e+07 -1.3267806462227791e+06 -1.3270323857385600e+08 -6.7531277955395281e+06  3.3042604350531178e+01 -8.5322263034946868e+00  3.1836541851094950e+00
 1.5091200000000000e+07 -1.2078267971432649e+06 -1.3273390596196890e+08 -6.7416641656259000e+06  3.3042863296924068e+01 -8.5052134362917808e+00  3.1850285624052921e+00
 1.5094800000026822e+07 -1.0888720597197949e+06 -1.3276447612428451e+08 -6.7301955937608480e+06  3.3043097881647078e+01 -8.4782119752771958e+00  3.1863997142340490e+00
 1.5098399999973178e+07 -9.6991652159245405e+05 -1.3279494910190110e+08 -6.7187220915510654e+06  3.3043308136218080e+01 -8.4512219396532373e+00  3.1877676430949302e+00
 1.5102000000000000e+07 -8.5096027029566083e+05 -1.3282532493598390e+08 -6.7072436705949679e+06  3.3043494092149913e+01 -8.4242433485534232e+00  3.1891323514900529e+00
 1.5105600000026822e+07 -7.3200339325039787e+05 -1.3285560366776679e+08 -6.6957603424819708e+06  3.3043655780950232e+01 -8.3972762210408405e+00  3.1904938419245639e+00
 1.5109199999973178e+07 -6.1304597775643936e+05 -1.3288578533855429e+08 -6.6842721187917292e+06  3.3043793234121409e+01 -8.3703205761064847e+00  3.1918521169067029e+00
 1.5112800000000000e+07 -4.9408811100795108e+05 -1.3291586998971701e+08 -6.6727790110955983e+06  3.3043906483160377e+01 -8.3433764326729190e+00  3.1932071789476089e+00
 1.5116400000026822e+07 -3.7512988008571911e+05 -1.3294585766269369e+08 -6.6612810309558958e+06  3.3043995559558518e+01 -8.3164438095926094e+00  3.1945590305613871e+00
 1.5119999999973178e+07 -2.5617137194938120e+05 -1.3297574839899281e+08 -6.6497781899251342e+06  3.3044060494801514e+01 -8.2895227256462949e+00  3.1959076742651789e+00
 1.5123600000000000e+07 -1.3721267345302721e+05 -1.3300554224018820e+08 -6.6382704995474890e+06  3.3044101320369208e+01 -8.2626131995466192e+00  3.1972531125789700e+00
 1.5127200000026822e+07 -1.8253871337429879e+04 -1.3303523922792110e+08 -6.6267579713580906e+06  3.3044118067735504e+01 -8.2357152499364830e+00  3.1985953480256510e+00
 1.5130799999973178e+07  1.0070494777772280e+05 -1.3306483940390161e+08 -6.6152406168821976e+06  3.3044110768368242e+01 -8.2088288953874020e+00  3.1999343831310938e+00
 1.5134400000000000e+07  2.1966369737822609e+05 -1.3309434280990461e+08 -6.6037184476367533e+06  3.3044079453729033e+01 -8.1819541544031544e+00  3.2012702204239529e+00
 1.5138000000026822e+07  3.3862229106312618e+05 -1.3312374948777150e+08 -6.5921914751295671e+06  3.3044024155273164e+01 -8.1550910454181178e+00  3.2026028624357319e+00
 1.5141599999973178e+07  4.5758064255248569e+05 -1.3315305947941190e+08 -6.5806597108585909e+06  3.3043944904449440e+01 -8.1282395867956438e+00  3.2039323117008620e+00
 1.5145200000000000e+07  5.7653866567178257e+05 -1.3318227282679920e+08 -6.5691231663134098e+06  3.3043841732700102e+01 -8.1013997968316840e+00  3.2052585707564929e+00
 1.5148800000026822e+07  6.9549627435967315e+05 -1.3321138957197310e+08 -6.5575818529744446e+06  3.3043714671460670e+01 -8.0745716937531498e+00  3.2065816421425750e+00
 1.5152399999973178e+07  8.1445338267576112e+05 -1.3324040975704010e+08 -6.5460357823122144e+06  3.3043563752159812e+01 -8.0477552957162768e+00  3.2079015284019219e+00
 1.5156000000000000e+07  9.3340990478498745e+05 -1.3326933342417040e+08 -6.5344849657888794e+06  3.3043389006219208e+01 -8.0209506208102486e+00  3.2092182320800142e+00
 1.5159600000026822e+07  1.0523657549654040e+06 -1.3329816061559910e+08 -6.5229294148573726e+06  3.3043190465053520e+01 -7.9941576870555666e+00  3.2105317557250750e+00
 1.5163199999973178e+07  1.1713208476159270e+06 -1.3332689137362801e+08 -6.5113691409607232e+06  3.3042968160070110e+01 -7.9673765124024039e+00  3.2118421018881329e+00
 1.5166800000000000e+07  1.2902750972407381e+06 -1.3335552574062119e+08 -6.4998041555335224e+06  3.3042722122669048e+01 -7.9406071147342354e+00  3.2131492731228311e+00
 1.5170400000026822e+07  1.4092284184570480e+06 -1.3338406375900760e+08 -6.4882344700011685e+06  3.3042452384242971e+01 -7.9138495118662080e+00  3.2144532719854961e+00
 1.5173999999973178e+07  1.5281807260028550e+06 -1.3341250547128150e+08 -6.4766600957790837e+06  3.3042158976176850e+01 -7.8871037215434949e+00  3.2157541010352042e+00
 1.5177600000000000e+07  1.6471319347213381e+06 -1.3344085091999941e+08 -6.4650810442742407e+06  3.3041841929847998e+01 -7.8603697614449271e+00  3.2170517628335911e+00
 1.5181200000026822e+07  1.7660819595686230e+06 -1.3346910014778110e+08 -6.4534973268843889e+06  3.3041501276625937e+01 -7.8336476491813514e+00  3.2183462599449228e+00
 1.5184799999973178e+07  1.8850307156215410e+06 -1.3349725319731180e+08 -6.4419089549972638e+06  3.3041137047872184e+01 -7.8069374022940092e+00  3.2196375949361569e+00
 1.5188400000000000e+07  2.0039781180620210e+06 -1.3352531011133750e+08 -6.4303159399921447e+06  3.3040749274940183e+01 -7.7802390382581494e+00  3.2209257703767600e+00
 1.5192000000026822e+07  2.1229240821848460e+06 -1.3355327093266730e+08 -6.4187182932390198e+06  3.3040337989175249e+01 -7.7535525744813869e+00  3.2222107888387659e+00
 1.5195599999973178e+07  2.2418685234054220e+06 -1.3358113570417459e+08 -6.4071160260978714e+06  3.3039903221914336e+01 -7.7268780283020941e+00  3.2234926528968528e+00
 1.5199200000000000e+07  2.3608113572441600e+06 -1.3360890446879330e+08 -6.3955091499201804e+06  3.3039445004485998e+01 -7.7002154169930010e+00  3.2247713651281482e+00
 1.5202800000026822e+07  2.4797524993342389e+06 -1.3363657726951930e+08 -6.3838976760481372e+06  3.3038963368210247e+01 -7.6735647577595731e+00  3.2260469281122992e+00
 1.5206399999973178e+07  2.5986918654293651e+06 -1.3366415414941201e+08 -6.3722816158138514e+06  3.3038458344398393e+01 -7.6469260677383692e+00  3.2273193444315318e+00
 1.5210000000000000e+07  2.7176293713881592e+06 -1.3369163515159100e+08 -6.3606609805409461e+06  3.3037929964352998e+01 -7.6202993640006822e+00  3.2285886166704811e+00
 1.5213600000026822e+07  2.8365649331819140e+06 -1.3371902031923661e+08 -6.3490357815436944e+06  3.3037378259367763e+01 -7.5936846635508823e+00  3.2298547474162360e+00
 1.5217199999973178e+07  2.9554984669023552e+06 -1.3374630969559260e+08 -6.3374060301263183e+06  3.3036803260727297e+01 -7.5670819833248100e+00  3.2311177392584218e+00
 1.5220800000000000e+07  3.0744298887460260e+06 -1.3377350332396150e+08 -6.3257717375844494e+06  3.3036204999707117e+01 -7.5404913401933786e+00  3.2323775947890070e+00
 1.5224400000026822e+07  3.1933591150220451e+06 -1.3380060124770650e+08 -6.3141329152043834e+06  3.3035583507573527e+01 -7.5139127509609436e+00  3.2336343166023691e+00
 1.5227999999973178e+07  3.3122860621598619e+06 -1.3382760351025300e+08 -6.3024895742623433e+06  3.3034938815583430e+01 -7.4873462323636941e+00  3.2348879072953660e+00
 1.5231600000000000e+07  3.4312106466936460e+06 -1.3385451015508460e+08 -6.2908417260259166e+06  3.3034270954984272e+01 -7.4607918010732508e+00  3.2361383694671471e+00
 1.5235200000026822e+07  3.5501327852700390e+06 -1.3388132122574520e+08 -6.2791893817533627e+06  3.3033579957013913e+01 -7.4342494736950258e+00  3.2373857057192170e+00
 1.5238799999973178e+07  3.6690523946559099e+06 -1.3390803676583961e+08 -6.2675325526928082e+06  3.3032865852900493e+01 -7.4077192667666427e+00  3.2386299186555099e+00
 1.5242400000000000e+07  3.7879693917227429e+06 -1.3393465681903060e+08 -6.2558712500837147e+06  3.3032128673862353e+01 -7.3812011967614932e+00  3.2398710108821929e+00
 1.5246000000026822e+07  3.9068836934543950e+06 -1.3396118142904010e+08 -6.2442054851562604e+06  3.3031368451107937e+01 -7.3546952800871432e+00  3.2411089850077470e+00
 1.5249599999973178e+07  4.0257952169548352e+06 -1.3398761063965060e+08 -6.2325352691303492e+06  3.3030585215835607e+01 -7.3282015330837167e+00  3.2423438436430181e+00
 1.5253200000000000e+07  4.1447038794325460e+06 -1.3401394449470180e+08 -6.2208606132173091e+06  3.3029778999233613e+01 -7.3017199720274686e+00  3.2435755894010430e+00
 1.5256800000026822e+07  4.2636095982082700e+06 -1.3404018303809170e+08 -6.2091815286190584e+06  3.3028949832479931e+01 -7.2752506131291970e+00  3.2448042248971141e+00
END Ephemeris
